KUIPER-00074            
1 64821U 25151F   25220.89293526  .00018814  00000+0  54460-3 0  9993
2 64821  51.8772 173.7077 0004748 230.1555 129.9013 15.35613399  3620
KUIPER-00075            
1 64822U 25151G   25220.91667824  .00028050  00000+0  80287-3 0  9992
2 64822  51.8783 173.5882 0004811 220.5725 276.9729 15.35719420  3469
KUIPER-00076            
1 64823U 25151H   25220.89468890  .00017395  00000+0  50673-3 0  9998
2 64823  51.8770 173.7192 0004930 224.8903 135.1685 15.35471287  3620
KUIPER-00077            
1 64824U 25151J   25220.89705360  .00019238  00000+0  55963-3 0  9990
2 64824  51.8784 173.7423 0005482 236.9401 123.1058 15.35439308  3622
KUIPER-00078            
1 64825U 25151K   25220.89655093  .00017691  00000+0  51514-3 0  9997
2 64825  51.8776 173.7348 0005530 239.8198 120.2240 15.35468756  3629
KUIPER-00079            
1 64826U 25151L   25220.88694779 -.00150152  00000+0 -43185-2 0  9997
2 64826  51.8778 173.6737 0005982 213.7173 146.3433 15.35783478  4825
KUIPER-00080            
1 64827U 25151M   25220.89126880  .00028757  00000+0  81967-3 0  9996
2 64827  51.8780 173.7043 0004784 226.3050 133.7540 15.35837544  3623
KUIPER-00082            
1 64828U 25151N   25220.88966519  .00018368  00000+0  52661-3 0  9993
2 64828  51.8776 173.6887 0005272 220.3044 139.7552 15.35929598  3624
KUIPER-00083            
1 64829U 25151P   25220.37492599 -.00203849  00000+0 -60239-2 0  9991
2 64829  51.8771 176.2362 0007629 221.0430 138.9982 15.35163761  4735
KUIPER-00084            
1 64830U 25151Q   25220.91667824 -.00001263  00000+0 -35417-4 0  9996
2 64830  51.8840 174.0712 0006391 230.0697  17.2765 15.25730956  3359
KUIPER-00085            
1 64831U 25151R   25220.88764482  .00026048  00000+0  73900-3 0  9995
2 64831  51.8776 173.6775 0005778 216.6920 143.3672 15.36034161  3624
KUIPER-00086            
1 64832U 25151S   25220.89774938  .00030904  00000+0  89284-3 0  9992
2 64832  51.8772 173.7414 0005313 241.9532 118.0917 15.35374240  3622
KUIPER-00087            
1 64833U 25151T   25220.89110493  .00025312  00000+0  72431-3 0  9996
2 64833  51.8774 173.7023 0005115 216.7694 143.2942 15.35784164  3628
KUIPER-00089            
1 64834U 25151U   25220.96062519  .00037599  00000+0  10784-2 0  9992
2 64834  51.8782 173.4196 0005228 239.0944 120.9528 15.35506151  3638
KUIPER-00090            
1 64835U 25151V   25220.89888390  .00025898  00000+0  75319-3 0  9993
2 64835  51.8776 173.7514 0005393 244.1249 115.9181 15.35260624  3627
KUIPER-00091            
1 64836U 25151W   25220.88865352  .00019232  00000+0  55182-3 0  9997
2 64836  51.8775 173.6821 0005230 214.7455 145.3190 15.35872930  3625
KUIPER-00092            
1 64837U 25151X   25220.89156275  .00032597  00000+0  92799-3 0  9990
2 64837  51.8768 173.6990 0005264 227.1346 132.9198 15.35809292  4834
KUIPER-00093            
1 64838U 25151Y   25220.89497135  .00017451  00000+0  50675-3 0  9993
2 64838  51.8784 173.7290 0005094 230.4211 129.6326 15.35567535  3629
KUIPER-00094            
1 64839U 25151Z   25220.89106020  .00030658  00000+0  87424-3 0  9990
2 64839  51.8770 173.6961 0004997 227.8809 132.1753 15.35789274  3622
